UUWW 161300Z 27006MPS 5000 -SN FEW011 BKN046 M04/M05 Q1019 R19/420542 NOSIG
TAF UUWW 161057Z 1612/1712 26005MPS 6000 FEW007 BKN016 TXM00/1712Z TNM07/1700Z 
  TEMPO 1612/1615 2100 -SHSN BKN006 BKN020CB 
  BECMG 1623/1701 20005MPS 
  BECMG 1701/1703 2500 -SN BR OVC007 
  TEMPO 1703/1712 20008G13MPS 1000 SHSN FZRA BKN003 BKN016CB