UUWW 141830Z 10007MPS 1700 0600SW +SHSN BKN022CB M10/M13 Q1017 WS R06 R06/450537 TEMPO 0700 +SHSN BKN012CB
TAF UUWW 141653Z 1418/1518 11007MPS 1000 SN OVC012 TXM06/1509Z TNM10/1418Z 
  TEMPO 1418/1509 10009G16MPS 0400 +SHSN BKN004 BKN012CB 
  PROB40 
  TEMPO 1418/1509 FZRA 
  TEMPO 1509/1512 0700 +SHSN BLSN BKN003 BKN012CB 
  BECMG 1512/1515 29005MPS 2100 -SN 
  TEMPO 1513/1518 1000 SHSN BKN004 SCT012CB
